{"type": "FeatureCollection", "features": [ {"type": "Feature", "properties": {"norad_id": 32430, "name": "FENGYUN 1C DEB", "group": "fengyun-1c-debris", "lat": 19.225316777933674, "lon": -160.01926706760673, "alt_km": 1006.0501875431028, "timestamp": "2025-12-18T17:50:15.243051+00:00", "meta": {"OBJECT_NAME": "FENGYUN 1C DEB", "OBJECT_ID": "1999-025DAS", "EPOCH": "2025-12-16T07:10:52.270176", "MEAN_MOTION": 13.70149446, "ECCENTRICITY": 0.03697498, "INCLINATION": 98.6973, "RA_OF_ASC_NODE": 14.7052, "ARG_OF_PERICENTER": 260.516, "MEAN_ANOMALY": 95.4026, "EPHEMERIS_TYPE": 0, "CLASSIFICATION_TYPE": "U", "NORAD_CAT_ID": 32430, "ELEMENT_SET_NO": 999, "REV_AT_EPOCH": 91252, "BSTAR": 0.0015817232, "MEAN_MOTION_DOT": 2.216e-05, "MEAN_MOTION_DDOT": 0}, "tle": {"line1": "1 32430U 99025DAS 25350.29921609  .00002216  00000+0  15817-2 0  9994", "line2": "2 32430  98.6973  14.7052 0369749 260.5160  95.4026 13.70149446912527"}}, "geometry": {"type": "Point", "coordinates": [-160.01926706760673, 19.225316777933674]}}, {"type": "Feature", "properties": {"norad_id": 32432, "name": "FENGYUN 1C DEB", "group": "fengyun-1c-debris", "lat": -17.984523649794447, "lon": 31.445726185959742, "alt_km": 650.3571231920005, "timestamp": "2025-12-18T17:50:15.243061+00:00", "meta": {"OBJECT_NAME": "FENGYUN 1C DEB", "OBJECT_ID": "1999-025DAU", "EPOCH": "2025-12-17T20:25:39.887904", "MEAN_MOTION": 14.52544362, "ECCENTRICITY": 0.01726018, "INCLINATION": 98.1707, "RA_OF_ASC_NODE": 27.9034, "ARG_OF_PERICENTER": 289.8657, "MEAN_ANOMALY": 68.401, "EPHEMERIS_TYPE": 0, "CLASSIFICATION_TYPE": "U", "NORAD_CAT_ID": 32432, "ELEMENT_SET_NO": 999, "REV_AT_EPOCH": 70769, "BSTAR": 0.0011440079, "MEAN_MOTION_DOT": 5.636e-05, "MEAN_MOTION_DDOT": 0}, "tle": {"line1": "1 32432U 99025DAU 25351.85115611  .00005636  00000+0  11440-2 0  9994", "line2": "2 32432  98.1707  27.9034 0172601 289.8657  68.4010 14.52544362707699"}}, "geometry": {"type": "Point", "coordinates": [31.445726185959742, -17.984523649794447]}}, {"type": "Feature", "properties": {"norad_id": 32440, "name": "FENGYUN 1C DEB", "group": "fengyun-1c-debris", "lat": 55.06773691806887, "lon": 40.965661608842, "alt_km": 863.1267292836283, "timestamp": "2025-12-18T17:50:15.243072+00:00", "meta": {"OBJECT_NAME": "FENGYUN 1C DEB", "OBJECT_ID": "1999-025DBC", "EPOCH": "2025-12-12T07:47:51.906912", "MEAN_MOTION": 13.6125644, "ECCENTRICITY": 0.03219473, "INCLINATION": 99.1542, "RA_OF_ASC_NODE": 201.5922, "ARG_OF_PERICENTER": 91.933, "MEAN_ANOMALY": 271.871, "EPHEMERIS_TYPE": 0, "CLASSIFICATION_TYPE": "U", "NORAD_CAT_ID": 32440, "ELEMENT_SET_NO": 999, "REV_AT_EPOCH": 60280, "BSTAR": 0.0043210943, "MEAN_MOTION_DOT": 4.61e-05, "MEAN_MOTION_DDOT": 0}, "tle": {"line1": "1 32440U 99025DBC 25346.32490633  .00004610  00000+0  43211-2 0  9991", "line2": "2 32440  99.1542 201.5922 0321947  91.9330 271.8710 13.61256440602801"}}, "geometry": {"type": "Point", "coordinates": [40.965661608842, 55.06773691806887]}}, {"type": "Feature", "properties": {"norad_id": 32447, "name": "FENGYUN 1C DEB", "group": "fengyun-1c-debris", "lat": 36.24625849811406, "lon": 2.0698089583767554, "alt_km": 847.9646197624861, "timestamp": "2025-12-18T17:50:15.243083+00:00", "meta": {"OBJECT_NAME": "FENGYUN 1C DEB", "OBJECT_ID": "1999-025DBK", "EPOCH": "2025-12-09T20:22:18.261408", "MEAN_MOTION": 13.96013309, "ECCENTRICITY": 0.00800272, "INCLINATION": 98.9313, "RA_OF_ASC_NODE": 0.0649, "ARG_OF_PERICENTER": 49.1812, "MEAN_ANOMALY": 311.6255, "EPHEMERIS_TYPE": 0, "CLASSIFICATION_TYPE": "U", "NORAD_CAT_ID": 32447, "ELEMENT_SET_NO": 999, "REV_AT_EPOCH": 67838, "BSTAR": 0.00036340481, "MEAN_MOTION_DOT": 4.69e-06, "MEAN_MOTION_DDOT": 0}, "tle": {"line1": "1 32447U 99025DBK 25343.84882247  .00000469  00000+0  36340-3 0  9992", "line2": "2 32447  98.9313   0.0649 0080027  49.1812 311.6255 13.96013309678386"}}, "geometry": {"type": "Point", "coordinates": [2.0698089583767554, 36.24625849811406]}}, {"type": "Feature", "properties": {"norad_id": 32451, "name": "FENGYUN 1C DEB", "group": "fengyun-1c-debris", "lat": -38.98791877119082, "lon": 144.72817142249846, "alt_km": 842.765989451199, "timestamp": "2025-12-18T17:50:15.243093+00:00", "meta": {"OBJECT_NAME": "FENGYUN 1C DEB", "OBJECT_ID": "1999-025DBP", "EPOCH": "2025-12-15T17:47:04.547904", "MEAN_MOTION": 13.86588617, "ECCENTRICITY": 0.01851329, "INCLINATION": 99.9706, "RA_OF_ASC_NODE": 329.7162, "ARG_OF_PERICENTER": 187.005, "MEAN_ANOMALY": 172.8511, "EPHEMERIS_TYPE": 0, "CLASSIFICATION_TYPE": "U", "NORAD_CAT_ID": 32451, "ELEMENT_SET_NO": 999, "REV_AT_EPOCH": 61806, "BSTAR": 0.001782357, "MEAN_MOTION_DOT": 2.321e-05, "MEAN_MOTION_DDOT": 0}, "tle": {"line1": "1 32451U 99025DBP 25349.74102486  .00002321  00000+0  17824-2 0  9996", "line2": "2 32451  99.9706 329.7162 0185132 187.0050 172.8511 13.86588617618067"}}, "geometry": {"type": "Point", "coordinates": [144.72817142249846, -38.98791877119082]}}, {"type": "Feature", "properties": {"norad_id": 32453, "name": "FENGYUN 1C DEB", "group": "fengyun-1c-debris", "lat": 66.57576749907423, "lon": 105.0264566745972, "alt_km": 864.0895338667215, "timestamp": "2025-12-18T17:50:15.243103+00:00", "meta": {"OBJECT_NAME": "FENGYUN 1C DEB", "OBJECT_ID": "1999-025DBR", "EPOCH": "2025-12-17T00:12:08.739936", "MEAN_MOTION": 14.02261172, "ECCENTRICITY": 0.00962487, "INCLINATION": 99.3722, "RA_OF_ASC_NODE": 260.8349, "ARG_OF_PERICENTER": 194.1493, "MEAN_ANOMALY": 165.6972, "EPHEMERIS_TYPE": 0, "CLASSIFICATION_TYPE": "U", "NORAD_CAT_ID": 32453, "ELEMENT_SET_NO": 999, "REV_AT_EPOCH": 93488, "BSTAR": 0.00047652067, "MEAN_MOTION_DOT": 7.13e-06, "MEAN_MOTION_DDOT": 0}, "tle": {"line1": "1 32453U 99025DBR 25351.00843449  .00000713  00000+0  47652-3 0  9997", "line2": "2 32453  99.3722 260.8349 0096248 194.1493 165.6972 14.02261172934887"}}, "geometry": {"type": "Point", "coordinates": [105.0264566745972, 66.57576749907423]}}, {"type": "Feature", "properties": {"norad_id": 32455, "name": "FENGYUN 1C DEB", "group": "fengyun-1c-debris", "lat": -31.525445335194576, "lon": -166.23002483132763, "alt_km": 1089.6657949380397, "timestamp": "2025-12-18T17:50:15.243113+00:00", "meta": {"OBJECT_NAME": "FENGYUN 1C DEB", "OBJECT_ID": "1999-025DBT", "EPOCH": "2025-12-15T19:17:51.115776", "MEAN_MOTION": 13.92483124, "ECCENTRICITY": 0.02358922, "INCLINATION": 101.7332, "RA_OF_ASC_NODE": 182.7306, "ARG_OF_PERICENTER": 137.6652, "MEAN_ANOMALY": 224.2971, "EPHEMERIS_TYPE": 0, "CLASSIFICATION_TYPE": "U", "NORAD_CAT_ID": 32455, "ELEMENT_SET_NO": 999, "REV_AT_EPOCH": 64458, "BSTAR": 0.0013497912, "MEAN_MOTION_DOT": 2.12e-05, "MEAN_MOTION_DDOT": 0}, "tle": {"line1": "1 32455U 99025DBT 25349.80406384  .00002120  00000+0  13498-2 0  9991", "line2": "2 32455 101.7332 182.7306 0235892 137.6652 224.2971 13.92483124644585"}}, "geometry": {"type": "Point", "coordinates": [-166.23002483132763, -31.525445335194576]}}, {"type": "Feature", "properties": {"norad_id": 32456, "name": "FENGYUN 1C DEB", "group": "fengyun-1c-debris", "lat": 50.98108100825158, "lon": 117.65803290548281, "alt_km": 1387.0760136218205, "timestamp": "2025-12-18T17:50:15.243123+00:00", "meta": {"OBJECT_NAME": "FENGYUN 1C DEB", "OBJECT_ID": "1999-025DBU", "EPOCH": "2025-12-17T03:48:04.533120", "MEAN_MOTION": 13.35640436, "ECCENTRICITY": 0.03794971, "INCLINATION": 103.6656, "RA_OF_ASC_NODE": 133.0133, "ARG_OF_PERICENTER": 216.4895, "MEAN_ANOMALY": 140.98, "EPHEMERIS_TYPE": 0, "CLASSIFICATION_TYPE": "U", "NORAD_CAT_ID": 32456, "ELEMENT_SET_NO": 999, "REV_AT_EPOCH": 60675, "BSTAR": 0.0016364212, "MEAN_MOTION_DOT": 1.184e-05, "MEAN_MOTION_DDOT": 0}, "tle": {"line1": "1 32456U 99025DBU 25351.15838580  .00001184  00000+0  16364-2 0  9994", "line2": "2 32456 103.6656 133.0133 0379497 216.4895 140.9800 13.35640436606758"}}, "geometry": {"type": "Point", "coordinates": [117.65803290548281, 50.98108100825158]}}, {"type": "Feature", "properties": {"norad_id": 32458, "name": "FENGYUN 1C DEB", "group": "fengyun-1c-debris", "lat": -63.22984046773265, "lon": 31.600507504867906, "alt_km": 678.583310486024, "timestamp": "2025-12-18T17:50:15.243133+00:00", "meta": {"OBJECT_NAME": "FENGYUN 1C DEB", "OBJECT_ID": "1999-025DBW", "EPOCH": "2025-12-17T07:38:45.791520", "MEAN_MOTION": 14.62340298, "ECCENTRICITY": 0.00400557, "INCLINATION": 99.0455, "RA_OF_ASC_NODE": 11.634, "ARG_OF_PERICENTER": 359.8936, "MEAN_ANOMALY": 0.2248, "EPHEMERIS_TYPE": 0, "CLASSIFICATION_TYPE": "U", "NORAD_CAT_ID": 32458, "ELEMENT_SET_NO": 999, "REV_AT_EPOCH": 67856, "BSTAR": 0.0011308111, "MEAN_MOTION_DOT": 5.724e-05, "MEAN_MOTION_DDOT": 0}, "tle": {"line1": "1 32458U 99025DBW 25351.31858555  .00005724  00000+0  11308-2 0  9995", "line2": "2 32458  99.0455  11.6340 0040055 359.8936   0.2248 14.62340298678565"}}, "geometry": {"type": "Point", "coordinates": [31.600507504867906, -63.22984046773265]}}, {"type": "Feature", "properties": {"norad_id": 32459, "name": "FENGYUN 1C DEB", "group": "fengyun-1c-debris", "lat": -54.45927513563902, "lon": 18.616566335305965, "alt_km": 865.1301828005853, "timestamp": "2025-12-18T17:50:15.243143+00:00", "meta": {"OBJECT_NAME": "FENGYUN 1C DEB", "OBJECT_ID": "1999-025DBX", "EPOCH": "2025-12-17T20:27:59.271840", "MEAN_MOTION": 14.4282892, "ECCENTRICITY": 0.02134957, "INCLINATION": 98.3021, "RA_OF_ASC_NODE": 5.9542, "ARG_OF_PERICENTER": 170.8776, "MEAN_ANOMALY": 189.6392, "EPHEMERIS_TYPE": 0, "CLASSIFICATION_TYPE": "U", "NORAD_CAT_ID": 32459, "ELEMENT_SET_NO": 999, "REV_AT_EPOCH": 94624, "BSTAR": 0.00036540002, "MEAN_MOTION_DOT": 1.555e-05, "MEAN_MOTION_DDOT": 0}, "tle": {"line1": "1 32459U 99025DBX 25351.85276935  .00001555  00000+0  36540-3 0  9995", "line2": "2 32459  98.3021   5.9542 0213495 170.8776 189.6392 14.42828920946246"}}, "geometry": {"type": "Point", "coordinates": [18.616566335305965, -54.45927513563902]}}]}